[{"OBJECT_NAME":"NINGXIA-1 8","OBJECT_ID":"2021-064C","EPOCH":"2026-03-09T22:43:09.880896","MEAN_MOTION":14.08520885,"ECCENTRICITY":0.00068596,"INCLINATION":44.9956,"RA_OF_ASC_NODE":314.4246,"ARG_OF_PERICENTER":130.9681,"MEAN_ANOMALY":229.175,"EPHEMERIS_TYPE":0,"CLASSIFICATION_TYPE":"U","NORAD_CAT_ID":49020,"ELEMENT_SET_NO":999,"REV_AT_EPOCH":24023,"BSTAR":0.0001794062,"MEAN_MOTION_DOT":1.78e-6,"MEAN_MOTION_DDOT":0},{"OBJECT_NAME":"SL-16 DEB","OBJECT_ID":"1992-093KS","EPOCH":"2026-03-07T03:56:23.133696","MEAN_MOTION":13.91322909,"ECCENTRICITY":0.0120265,"INCLINATION":71.1569,"RA_OF_ASC_NODE":123.3745,"ARG_OF_PERICENTER":144.8107,"MEAN_ANOMALY":248.13,"EPHEMERIS_TYPE":0,"CLASSIFICATION_TYPE":"U","NORAD_CAT_ID":39726,"ELEMENT_SET_NO":999,"REV_AT_EPOCH":60334,"BSTAR":0.00012308608,"MEAN_MOTION_DOT":1.22e-6,"MEAN_MOTION_DDOT":0}]
